start=new Date('2022-06-15T00:00:00.000Z').valueOf();
sats=[{"ELEMENT_SET_NO":"999","MEAN_ELEMENT_THEORY":"SGP4","TIME_SYSTEM":"UTC","TLE_LINE2":"2 46137  53.0547 299.9712 0001997  55.0155 305.1021 15.06403875100757","NORAD_CAT_ID":"46137","MEAN_MOTION":"15.06403875","MEAN_ANOMALY":"305.1021","DECAY_DATE":null,"OBJECT_ID":"2020-057W","REF_FRAME":"TEME","SEMIMAJOR_AXIS":"6925.337","PERIOD":"95.592","COUNTRY_CODE":"US","OBJECT_TYPE":"PAYLOAD","INCLINATION":"53.0547","EPOCH":"2022-06-14T15:57:40.167072","OBJECT_NAME":"STARLINK-1586","APOAPSIS":"548.585","RA_OF_ASC_NODE":"299.9712","SITE":"AFETR","MEAN_MOTION_DDOT":"0.0000000000000","TLE_LINE1":"1 46137U 20057W   22165.66504823  .00002105  00000-0  16014-3 0  9998","ARG_OF_PERICENTER":"55.0155","GP_ID":"206167347","MEAN_MOTION_DOT":"0.00002105","EPHEMERIS_TYPE":"0","REV_AT_EPOCH":"10075","FILE":"3496199","LAUNCH_DATE":"2020-08-18","CENTER_NAME":"EARTH","CLASSIFICATION_TYPE":"U","BSTAR":"0.00016014000000","PERIAPSIS":"545.819","RCS_SIZE":"LARGE","ECCENTRICITY":"0.00019970"},{"INCLINATION":"53.0576","OBJECT_TYPE":"PAYLOAD","COUNTRY_CODE":"US","RA_OF_ASC_NODE":"319.3780","APOAPSIS":"548.333","OBJECT_NAME":"STARLINK-1590","EPOCH":"2022-06-14T19:06:06.488352","MEAN_MOTION":"15.06390233","MEAN_ANOMALY":"289.7935","NORAD_CAT_ID":"46138","TIME_SYSTEM":"UTC","TLE_LINE2":"2 46138  53.0576 319.3780 0001573  70.3224 289.7935 15.06390233100494","MEAN_ELEMENT_THEORY":"SGP4","ELEMENT_SET_NO":"999","PERIOD":"95.593","SEMIMAJOR_AXIS":"6925.378","REF_FRAME":"TEME","OBJECT_ID":"2020-057X","DECAY_DATE":null,"BSTAR":"-0.00001183500000","CLASSIFICATION_TYPE":"U","CENTER_NAME":"EARTH","LAUNCH_DATE":"2020-08-18","ECCENTRICITY":"0.00015730","RCS_SIZE":"LARGE","PERIAPSIS":"546.154","TLE_LINE1":"1 46138U 20057X   22165.79590843 -.00000458  00000-0 -11835-4 0  9998","GP_ID":"206168093","ARG_OF_PERICENTER":"70.3224","MEAN_MOTION_DDOT":"0.0000000000000","SITE":"AFETR","FILE":"3496199","EPHEMERIS_TYPE":"0","MEAN_MOTION_DOT":"-0.00000458","REV_AT_EPOCH":"10049"},{"SITE":"AFETR","GP_ID":"206166846","TLE_LINE1":"1 46140U 20057Z   22165.75535397 -.00010150  00000-0 -66290-3 0  9994","ARG_OF_PERICENTER":"41.7741","MEAN_MOTION_DDOT":"0.0000000000000","MEAN_MOTION_DOT":"-0.00010150","EPHEMERIS_TYPE":"0","REV_AT_EPOCH":"10231","FILE":"3496199","LAUNCH_DATE":"2020-08-18","CENTER_NAME":"EARTH","CLASSIFICATION_TYPE":"U","BSTAR":"-0.00066290000000","RCS_SIZE":"LARGE","PERIAPSIS":"546.040","ECCENTRICITY":"0.00015490","MEAN_ELEMENT_THEORY":"SGP4","ELEMENT_SET_NO":"999","MEAN_ANOMALY":"318.3366","MEAN_MOTION":"15.06432973","TIME_SYSTEM":"UTC","TLE_LINE2":"2 46140  53.0543 279.5477 0001549  41.7741 318.3366 15.06432973102318","NORAD_CAT_ID":"46140","DECAY_DATE":null,"OBJECT_ID":"2020-057Z","PERIOD":"95.590","REF_FRAME":"TEME","SEMIMAJOR_AXIS":"6925.248","COUNTRY_CODE":"US","OBJECT_TYPE":"PAYLOAD","INCLINATION":"53.0543","EPOCH":"2022-06-14T18:07:42.583008","APOAPSIS":"548.185","RA_OF_ASC_NODE":"279.5477","OBJECT_NAME":"STARLINK-1594"},{"DECAY_DATE":null,"OBJECT_ID":"2020-057AA","PERIOD":"95.593","REF_FRAME":"TEME","SEMIMAJOR_AXIS":"6925.368","MEAN_ELEMENT_THEORY":"SGP4","ELEMENT_SET_NO":"999","MEAN_MOTION":"15.06393518","MEAN_ANOMALY":"290.0084","TIME_SYSTEM":"UTC","TLE_LINE2":"2 46141  53.0550 279.3512 0001408  70.1057 290.0084 15.06393518101059","NORAD_CAT_ID":"46141","EPOCH":"2022-06-14T19:11:24.305568","APOAPSIS":"548.209","RA_OF_ASC_NODE":"279.3512","OBJECT_NAME":"STARLINK-1596","COUNTRY_CODE":"US","OBJECT_TYPE":"PAYLOAD","INCLINATION":"53.0550","EPHEMERIS_TYPE":"0","MEAN_MOTION_DOT":"-0.00000135","REV_AT_EPOCH":"10105","FILE":"3496199","SITE":"AFETR","ARG_OF_PERICENTER":"70.1057","TLE_LINE1":"1 46141U 20057AA  22165.79958687 -.00000135  00000-0  98616-5 0  9990","GP_ID":"206167096","MEAN_MOTION_DDOT":"0.0000000000000","RCS_SIZE":"LARGE","PERIAPSIS":"546.258","ECCENTRICITY":"0.00014080","LAUNCH_DATE":"2020-08-18","CENTER_NAME":"EARTH","CLASSIFICATION_TYPE":"U","BSTAR":"0.00000986160000"},{"COUNTRY_CODE":"US","OBJECT_TYPE":"PAYLOAD","INCLINATION":"53.0548","EPOCH":"2022-06-14T19:37:56.512416","OBJECT_NAME":"STARLINK-1597","APOAPSIS":"548.246","RA_OF_ASC_NODE":"319.2803","ELEMENT_SET_NO":"999","MEAN_ELEMENT_THEORY":"SGP4","TIME_SYSTEM":"UTC","TLE_LINE2":"2 46142  53.0548 319.2803 0001477  78.6722 281.4433 15.06396864100498","NORAD_CAT_ID":"46142","MEAN_ANOMALY":"281.4433","MEAN_MOTION":"15.06396864","DECAY_DATE":null,"OBJECT_ID":"2020-057AB","REF_FRAME":"TEME","SEMIMAJOR_AXIS":"6925.358","PERIOD":"95.592","LAUNCH_DATE":"2020-08-18","CENTER_NAME":"EARTH","CLASSIFICATION_TYPE":"U","BSTAR":"-0.00000906960000","PERIAPSIS":"546.200","RCS_SIZE":"LARGE","ECCENTRICITY":"0.00014770","SITE":"AFETR","MEAN_MOTION_DDOT":"0.0000000000000","GP_ID":"206167847","TLE_LINE1":"1 46142U 20057AB  22165.81801519 -.00000417  00000-0 -90696-5 0  9999","ARG_OF_PERICENTER":"78.6722","REV_AT_EPOCH":"10049","MEAN_MOTION_DOT":"-0.00000417","EPHEMERIS_TYPE":"0","FILE":"3496199"},{"REV_AT_EPOCH":"8902","MEAN_MOTION_DOT":"0.00000282","EPHEMERIS_TYPE":"0","FILE":"3496199","SITE":"AFETR","MEAN_MOTION_DDOT":"0.0000000000000","ARG_OF_PERICENTER":"77.5580","TLE_LINE1":"1 46144U 20057AD  22165.78299840  .00000282  00000-0  37849-4 0  9993","GP_ID":"206167594","PERIAPSIS":"546.271","RCS_SIZE":"LARGE","ECCENTRICITY":"0.00013720","CENTER_NAME":"EARTH","LAUNCH_DATE":"2020-08-18","CLASSIFICATION_TYPE":"U","BSTAR":"0.00003784900000","DECAY_DATE":null,"OBJECT_ID":"2020-057AD","REF_FRAME":"TEME","SEMIMAJOR_AXIS":"6925.356","PERIOD":"95.592","ELEMENT_SET_NO":"999","MEAN_ELEMENT_THEORY":"SGP4","TIME_SYSTEM":"UTC","TLE_LINE2":"2 46144  53.0542 299.4436 0001372  77.5580 282.5563 15.06397434 89024","NORAD_CAT_ID":"46144","MEAN_MOTION":"15.06397434","MEAN_ANOMALY":"282.5563","EPOCH":"2022-06-14T18:47:31.061760","OBJECT_NAME":"STARLINK-1606","APOAPSIS":"548.172","RA_OF_ASC_NODE":"299.4436","COUNTRY_CODE":"US","OBJECT_TYPE":"PAYLOAD","INCLINATION":"53.0542"},{"MEAN_MOTION_DDOT":"0.0000000000000","TLE_LINE1":"1 46146U 20057AF  22165.82907196 -.00001030  00000-0 -50284-4 0  9992","GP_ID":"206166347","ARG_OF_PERICENTER":"67.1424","SITE":"AFETR","FILE":"3496199","REV_AT_EPOCH":"10050","MEAN_MOTION_DOT":"-0.00001030","EPHEMERIS_TYPE":"0","BSTAR":"-0.00005028400000","CLASSIFICATION_TYPE":"U","LAUNCH_DATE":"2020-08-18","CENTER_NAME":"EARTH","ECCENTRICITY":"0.00014350","PERIAPSIS":"546.204","RCS_SIZE":"LARGE","NORAD_CAT_ID":"46146","TLE_LINE2":"2 46146  53.0571 319.2200 0001435  67.1424 292.9716 15.06405035100509","TIME_SYSTEM":"UTC","MEAN_ANOMALY":"292.9716","MEAN_MOTION":"15.06405035","ELEMENT_SET_NO":"999","MEAN_ELEMENT_THEORY":"SGP4","SEMIMAJOR_AXIS":"6925.333","REF_FRAME":"TEME","PERIOD":"95.592","OBJECT_ID":"2020-057AF","DECAY_DATE":null,"INCLINATION":"53.0571","OBJECT_TYPE":"PAYLOAD","COUNTRY_CODE":"US","OBJECT_NAME":"STARLINK-1608","RA_OF_ASC_NODE":"319.2200","APOAPSIS":"548.192","EPOCH":"2022-06-14T19:53:51.817344"},{"INCLINATION":"53.0566","OBJECT_TYPE":"PAYLOAD","COUNTRY_CODE":"US","OBJECT_NAME":"STARLINK-1611","RA_OF_ASC_NODE":"319.3120","APOAPSIS":"548.329","EPOCH":"2022-06-14T19:27:19.976832","NORAD_CAT_ID":"46147","TIME_SYSTEM":"UTC","TLE_LINE2":"2 46147  53.0566 319.3120 0001576  65.3527 294.7626 15.06392175101754","MEAN_MOTION":"15.06392175","MEAN_ANOMALY":"294.7626","ELEMENT_SET_NO":"999","MEAN_ELEMENT_THEORY":"SGP4","SEMIMAJOR_AXIS":"6925.373","REF_FRAME":"TEME","PERIOD":"95.593","OBJECT_ID":"2020-057AG","DECAY_DATE":null,"BSTAR":"-0.00000390350000","CLASSIFICATION_TYPE":"U","LAUNCH_DATE":"2020-08-18","CENTER_NAME":"EARTH","ECCENTRICITY":"0.00015760","PERIAPSIS":"546.146","RCS_SIZE":"LARGE","MEAN_MOTION_DDOT":"0.0000000000000","TLE_LINE1":"1 46147U 20057AG  22165.81064788 -.00000340  00000-0 -39035-5 0  9998","ARG_OF_PERICENTER":"65.3527","GP_ID":"206166597","SITE":"AFETR","FILE":"3496199","EPHEMERIS_TYPE":"0","MEAN_MOTION_DOT":"-0.00000340","REV_AT_EPOCH":"10175"},{"EPOCH":"2022-06-14T17:59:47.666400","OBJECT_NAME":"STARLINK-1616","APOAPSIS":"548.160","RA_OF_ASC_NODE":"299.5907","COUNTRY_CODE":"US","OBJECT_TYPE":"PAYLOAD","INCLINATION":"53.0551","DECAY_DATE":null,"OBJECT_ID":"2020-057AH","REF_FRAME":"TEME","SEMIMAJOR_AXIS":"6925.335","PERIOD":"95.592","ELEMENT_SET_NO":"999","MEAN_ELEMENT_THEORY":"SGP4","TIME_SYSTEM":"UTC","TLE_LINE2":"2 46148  53.0551 299.5907 0001385  74.5407 285.5735 15.06404312100764","NORAD_CAT_ID":"46148","MEAN_ANOMALY":"285.5735","MEAN_MOTION":"15.06404312","PERIAPSIS":"546.241","RCS_SIZE":"LARGE","ECCENTRICITY":"0.00013850","LAUNCH_DATE":"2020-08-18","CENTER_NAME":"EARTH","CLASSIFICATION_TYPE":"U","BSTAR":"0.00022679000000","REV_AT_EPOCH":"10076","MEAN_MOTION_DOT":"0.00003099","EPHEMERIS_TYPE":"0","FILE":"3496199","SITE":"AFETR","MEAN_MOTION_DDOT":"0.0000000000000","TLE_LINE1":"1 46148U 20057AH  22165.74985725  .00003099  00000-0  22679-3 0  9990","ARG_OF_PERICENTER":"74.5407","GP_ID":"206167348"},{"CLASSIFICATION_TYPE":"U","LAUNCH_DATE":"2020-08-18","CENTER_NAME":"EARTH","BSTAR":"-0.00317920000000","RCS_SIZE":"LARGE","PERIAPSIS":"545.335","ECCENTRICITY":"0.00012700","SITE":"AFETR","ARG_OF_PERICENTER":"107.1123","TLE_LINE1":"1 46149U 20057AJ  22165.76377669 -.00047737  00000-0 -31792-2 0  9999","GP_ID":"206168094","MEAN_MOTION_DDOT":"0.0000000000000","EPHEMERIS_TYPE":"0","MEAN_MOTION_DOT":"-0.00047737","REV_AT_EPOCH":"10204","FILE":"3496199","OBJECT_TYPE":"PAYLOAD","COUNTRY_CODE":"US","INCLINATION":"53.0547","EPOCH":"2022-06-14T18:19:50.306016","RA_OF_ASC_NODE":"299.5158","APOAPSIS":"547.094","OBJECT_NAME":"STARLINK-1620","MEAN_ELEMENT_THEORY":"SGP4","ELEMENT_SET_NO":"999","MEAN_MOTION":"15.06725949","MEAN_ANOMALY":"253.0006","NORAD_CAT_ID":"46149","TLE_LINE2":"2 46149  53.0547 299.5158 0001270 107.1123 253.0006 15.06725949102045","TIME_SYSTEM":"UTC","OBJECT_ID":"2020-057AJ","DECAY_DATE":null,"PERIOD":"95.571","SEMIMAJOR_AXIS":"6924.350","REF_FRAME":"TEME"}];
